DONGPO 02               
1 53452U 22098J   26167.60576926  .00035162  00000+0  24267-3 0  9993
2 53452  97.5532 298.7434 0002370 274.1543  85.9450 15.74507763214707
DONGPO 01               
1 53453U 22098K   26167.59555095  .00084937  00000+0  63742-3 0  9991
2 53453  97.5594 299.2607 0001832 234.3210 125.7882 15.72348393214662
STARLINK-4400           
1 53468U 22099D   26167.58027767 -.00001846  00000+0 -12395-3 0  9995
2 53468  97.3507 286.6356 0001589 118.2871 241.8517 15.05660276210858
STARLINK-4621           
1 53676U 22105AE  26167.58304973  .00000749  00000+0  55906-4 0  9996
2 53676  97.3560  46.6499 0002497  79.3375 280.8134 15.05653128208117
SHERPA-LTC2             
1 53754U 22107BG  26167.43825457  .00004425  00000+0  23143-3 0  9996
2 53754  53.2349 223.5012 0393904 223.9429 132.9596 14.69707124202433
CENTISPACE-1 S3         
1 53757U 22108A   26167.59205121  .00000399  00000+0  11841-3 0  9995
2 53757  53.5336  57.7199 0009338 353.5252   6.5601 14.61252157201443
CENTISPACE-1 S4         
1 53758U 22108B   26167.57661591  .00000548  00000+0  14624-3 0  9999
2 53758  53.5312  55.3045 0008528 341.6160  18.4506 14.61933060201476
BLUEWALKER-3            
1 53807U 22111AL  26167.33513137  .00005114  00000+0  14387-3 0  9994
2 53807  53.2297  37.9720 0006425 158.3455 201.7824 15.38261959210072
YUNHAI-1 03             
1 53877U 22115A   26167.55891696  .00000281  00000+0  11937-3 0  9996
2 53877  98.5532 165.7140 0005803  57.1217 303.0525 14.32717690195426
CENTISPACE-1 S5         
1 54020U 22126A   26167.53708171  .00000415  00000+0  11695-3 0  9992
2 54020  54.9977 215.5620 0014582  71.2193 289.0382 14.63013420196943
CENTISPACE-1 S6         
1 54021U 22126B   26167.52993260  .00000230  00000+0  82411-4 0  9997
2 54021  54.9981 217.4527 0016429  71.2939 288.9836 14.62290196196900
OTB-3-GAZELLE           
1 54023U 22127A   26167.57429752  .00000108  00000+0  45342-4 0  9991
2 54023  98.3943 159.2879 0012938 185.0127 175.0935 14.42674249194276
ASO-S                   
1 54029U 22129A   26167.56473332  .00000167  00000+0  52275-4 0  9999
2 54029  98.2747 172.6541 0015771  94.4119 265.8879 14.52061510195335
HJ-2E                   
1 54035U 22132A   26167.62764669  .00006842  00000+0  29827-3 0  9995
2 54035  97.3793 172.0140 0020612  17.0898 343.1028 15.22308130204334
COSMOS 2561             
1 54109U 22137A   26167.51717513  .00011745  00000+0  19844-3 0  9992
2 54109  96.9176 226.5432 0010744  38.5043 321.6975 15.51688003206246
GONETS-M 23             
1 54150U 22139A   26167.61879237  .00000023  00000+0  93090-4 0  9996
2 54150  82.5073 348.6477 0020883 220.9699 138.9813 12.42890856165571
GONETS-M 24             
1 54151U 22139B   26167.59188513  .00000008  00000+0 -11914-4 0  9993
2 54151  82.4989 347.7246 0015995 231.3716 128.5933 12.42891415165575
GONETS-M 25             
1 54152U 22139C   26167.57827049  .00000007  00000+0 -16822-4 0  9998
2 54152  82.5055 348.4191 0019913 230.2037 129.7290 12.42889991165571
SKIF-D                  
1 54153U 22139D   26167.25747672  .00000010  00000+0  00000+0 0  9996
2 54153  89.9510  96.6680 0007388 199.5226 160.4972  5.00427796 64062
MATS                    
1 54227U 22147A   26167.58364390  .00002069  00000+0  14866-3 0  9990
2 54227  97.6818 169.1831 0011973 193.0412 167.0507 15.05351536197671
JILIN-1 GAOFEN 03D54    
1 54254U 22155D   26167.39866333  .00302320  39423-4  66362-3 0  9999
2 54254  97.6122 320.4043 0005654 263.6498  96.4135 15.98109091200174
EOS-6 (OCEANSAT-3)      
1 54361U 22158A   26167.60952256  .00000233  00000+0  76039-4 0  9990
2 54361  98.3540 265.8113 0001251  49.5086 310.6215 14.47000171187758
DONGPO 09               
1 54685U 22167D   26167.62841119  .00009844  00000+0  28028-3 0  9997
2 54685  97.6895 338.6098 0003546 117.4032 242.7573 15.36323861195369
DONGPO 08               
1 54686U 22167E   26167.60790861  .00008912  00000+0  27631-3 0  9997
2 54686  97.6859 335.7691 0008637 162.3629 197.7915 15.33635646195233
2022-167F               
1 54687U 22167F   26167.58142263  .00191320  15896-4  56946-3 0  9993
2 54687  97.6111 355.4246 0001637 235.0676 125.0444 15.92464575196736
DONGPO 10               
1 54689U 22167H   26167.61485802  .00009120  00000+0  27574-3 0  9995
2 54689  97.6939 337.7265 0006281 111.7221 248.4690 15.34443662195277
JILIN-1 GAOFEN 03D48    
1 54695U 22167P   26167.61285248  .00009463  00000+0  27907-3 0  9994
2 54695  97.6874 337.1022 0007622 116.5660 243.6364 15.35210129195307
STAR VIBE               
1 55009U 23001A   26167.58653760  .00012033  00000+0  27835-3 0  9993
2 55009  97.3171 232.0479 0007142 114.1710 246.0285 15.42601907192133
BRO-8                   
1 55011U 23001C   26167.59594582  .00028028  00000+0  51767-3 0  9995
2 55011  97.3215 232.7708 0006799 125.8329 234.3555 15.49027109192110
CONNECTA T1.2           
1 55012U 23001D   26167.59010674  .00032067  00000+0  55841-3 0  9996
2 55012  97.3271 238.2699 0006621 104.7732 255.4254 15.50679762192458
