OBJECT_NAME,OBJECT_ID,EPOCH,MEAN_MOTION,ECCENTRICITY,INCLINATION,RA_OF_ASC_NODE,ARG_OF_PERICENTER,MEAN_ANOMALY,EPHEMERIS_TYPE,CLASSIFICATION_TYPE,NORAD_CAT_ID,ELEMENT_SET_NO,REV_AT_EPOCH,BSTAR,MEAN_MOTION_DOT,MEAN_MOTION_DDOT
DONGPO 02,2022-098J,2026-06-16T14:32:18.464064,15.74507763,.00023706,97.5532,298.7434,274.1543,85.9450,0,U,53452,999,21470,.24267055E-3,.35162E-3,0
DONGPO 01,2022-098K,2026-06-16T14:17:35.602080,15.72348393,.00018324,97.5594,299.2607,234.3210,125.7882,0,U,53453,999,21466,.63741517E-3,.84937E-3,0
STARLINK-4400,2022-099D,2026-06-16T13:55:35.990688,15.05660276,.00015894,97.3507,286.6356,118.2871,241.8517,0,U,53468,999,21085,-.12395384E-3,-.1846E-4,0
STARLINK-4621,2022-105AE,2026-06-16T13:59:35.496672,15.05653128,.00024973,97.3560,46.6499,79.3375,280.8134,0,U,53676,999,20811,.55905557E-4,.749E-5,0
SHERPA-LTC2,2022-107BG,2026-06-16T10:31:05.194848,14.69707124,.03939041,53.2349,223.5012,223.9429,132.9596,0,U,53754,999,20243,.23142746E-3,.4425E-4,0
CENTISPACE-1 S3,2022-108A,2026-06-16T14:12:33.224544,14.61252157,.00093382,53.5336,57.7199,353.5252,6.5601,0,U,53757,999,20144,.1184085E-3,.399E-5,0
CENTISPACE-1 S4,2022-108B,2026-06-16T13:50:19.614624,14.61933060,.00085281,53.5312,55.3045,341.6160,18.4506,0,U,53758,999,20147,.14623546E-3,.548E-5,0
BLUEWALKER-3,2022-111AL,2026-06-16T08:02:35.350368,15.38261959,.00064258,53.2297,37.9720,158.3455,201.7824,0,U,53807,999,21007,.1438702E-3,.5114E-4,0
YUNHAI-1 03,2022-115A,2026-06-16T13:24:50.425344,14.32717690,.00058033,98.5532,165.7140,57.1217,303.0525,0,U,53877,999,19542,.11937068E-3,.281E-5,0
CENTISPACE-1 S5,2022-126A,2026-06-16T12:53:23.859744,14.63013420,.0014582,54.9977,215.5620,71.2193,289.0382,0,U,54020,999,19694,.11695263E-3,.415E-5,0
CENTISPACE-1 S6,2022-126B,2026-06-16T12:43:06.176640,14.62290196,.00164293,54.9981,217.4527,71.2939,288.9836,0,U,54021,999,19690,.82411371E-4,.23E-5,0
OTB-3-GAZELLE,2022-127A,2026-06-16T13:46:59.305728,14.42674249,.00129382,98.3943,159.2879,185.0127,175.0935,0,U,54023,999,19427,.45341788E-4,.108E-5,0
ASO-S,2022-129A,2026-06-16T13:33:12.958848,14.52061510,.0015771,98.2747,172.6541,94.4119,265.8879,0,U,54029,999,19533,.52275269E-4,.167E-5,0
HJ-2E,2022-132A,2026-06-16T15:03:48.674016,15.22308130,.00206123,97.3793,172.0140,17.0898,343.1028,0,U,54035,999,20433,.29826666E-3,.6842E-4,0
COSMOS 2561,2022-137A,2026-06-16T12:24:43.931232,15.51688003,.0010744,96.9176,226.5432,38.5043,321.6975,0,U,54109,999,20624,.19844E-3,.11745E-3,0
GONETS-M 23,2022-139A,2026-06-16T14:51:03.660768,12.42890856,.00208839,82.5073,348.6477,220.9699,138.9813,0,U,54150,999,16557,.93090015E-4,.23E-6,0
GONETS-M 24,2022-139B,2026-06-16T14:12:18.875232,12.42891415,.00159959,82.4989,347.7246,231.3716,128.5933,0,U,54151,999,16557,-.11914246E-4,.8E-7,0
GONETS-M 25,2022-139C,2026-06-16T13:52:42.570336,12.42889991,.00199136,82.5055,348.4191,230.2037,129.7290,0,U,54152,999,16557,-.16821624E-4,.7E-7,0
SKIF-D,2022-139D,2026-06-16T06:10:45.988608,5.00427796,.0007388,89.9510,96.6680,199.5226,160.4972,0,U,54153,999,6406,0,.1E-6,0
MATS,2022-147A,2026-06-16T14:00:26.832960,15.05351536,.00119739,97.6818,169.1831,193.0412,167.0507,0,U,54227,999,19767,.14865878E-3,.2069E-4,0
JILIN-1 GAOFEN 03D54,2022-155D,2026-06-16T09:34:04.511712,15.98109091,.00056545,97.6122,320.4043,263.6498,96.4135,0,U,54254,999,20017,.66362241E-3,.30232E-2,.39423131E-4
EOS-6 (OCEANSAT-3),2022-158A,2026-06-16T14:37:42.749184,14.47000171,.00012515,98.3540,265.8113,49.5086,310.6215,0,U,54361,999,18775,.76038666E-4,.233E-5,0
DONGPO 09,2022-167D,2026-06-16T15:04:54.726816,15.36323861,.00035467,97.6895,338.6098,117.4032,242.7573,0,U,54685,999,19536,.28028414E-3,.9844E-4,0
DONGPO 08,2022-167E,2026-06-16T14:35:23.303904,15.33635646,.0008637,97.6859,335.7691,162.3629,197.7915,0,U,54686,999,19523,.27631341E-3,.8912E-4,0
2022-167F,2022-167F,2026-06-16T13:57:14.915232,15.92464575,.00016372,97.6111,355.4246,235.0676,125.0444,0,U,54687,999,19673,.56945842E-3,.19132E-2,.15896349E-4
DONGPO 10,2022-167H,2026-06-16T14:45:23.732928,15.34443662,.00062816,97.6939,337.7265,111.7221,248.4690,0,U,54689,999,19527,.27573747E-3,.912E-4,0
JILIN-1 GAOFEN 03D48,2022-167P,2026-06-16T14:42:30.454272,15.35210129,.00076221,97.6874,337.1022,116.5660,243.6364,0,U,54695,999,19530,.27906955E-3,.9463E-4,0
STAR VIBE,2023-001A,2026-06-16T14:04:36.848640,15.42601907,.00071426,97.3171,232.0479,114.1710,246.0285,0,U,55009,999,19213,.27835424E-3,.12033E-3,0
BRO-8,2023-001C,2026-06-16T14:18:09.718848,15.49027109,.0006799,97.3215,232.7708,125.8329,234.3555,0,U,55011,999,19211,.5176727E-3,.28028E-3,0
CONNECTA T1.2,2023-001D,2026-06-16T14:09:45.222336,15.50679762,.00066218,97.3271,238.2699,104.7732,255.4254,0,U,55012,999,19245,.55840981E-3,.32067E-3,0
